[{"OBJECT_NAME":"PRAETORIAN SDA_609","OBJECT_ID":"2025-203H","EPOCH":"2026-03-09T13:17:17.896704","MEAN_MOTION":13.84314664,"ECCENTRICITY":0.0008251,"INCLINATION":81.302,"RA_OF_ASC_NODE":103.0603,"ARG_OF_PERICENTER":102.7158,"MEAN_ANOMALY":257.4922,"EPHEMERIS_TYPE":0,"CLASSIFICATION_TYPE":"U","NORAD_CAT_ID":65572,"ELEMENT_SET_NO":999,"REV_AT_EPOCH":2491,"BSTAR":0.00016281,"MEAN_MOTION_DOT":1.94e-6,"MEAN_MOTION_DDOT":0},{"OBJECT_NAME":"FENGYUN 1C DEB","OBJECT_ID":"1999-025ALZ","EPOCH":"2026-03-09T10:09:34.841088","MEAN_MOTION":14.1742681,"ECCENTRICITY":0.01945716,"INCLINATION":99.1446,"RA_OF_ASC_NODE":292.2026,"ARG_OF_PERICENTER":70.6738,"MEAN_ANOMALY":291.5363,"EPHEMERIS_TYPE":0,"CLASSIFICATION_TYPE":"U","NORAD_CAT_ID":30594,"ELEMENT_SET_NO":999,"REV_AT_EPOCH":98807,"BSTAR":0.00016670245,"MEAN_MOTION_DOT":3.6e-6,"MEAN_MOTION_DDOT":0}]
